COSMOS 2251 DEB         
1 38189U 93036BSD 17345.94997894  .00004569  00000-0  63283-3 0  9998
2 38189  74.0218  71.3497 0003614 106.8961  11.0532 14.78306663242698
